NORAD_CAT_ID,OBJECT_NAME,OBJECT_TYPE,EPOCH,MEAN_MOTION,ECCENTRICITY,INCLINATION,RA_OF_ASC_NODE,ARG_OF_PERICENTER,MEAN_ANOMALY,BSTAR,MEAN_MOTION_DOT,MEAN_MOTION_DDOT,TLE_LINE0,TLE_LINE1,TLE_LINE2,SEMIMAJOR_AXIS,PERIOD,APOGEE,PERIGEE,DECAYED
51961.0,STARLINK-3689,PAYLOAD,2022-10-11 18:13:17,15.08817087,0.0001683,53.2179,217.8368,46.3681,313.745,-0.00023365,-4.002e-05,0.0,0 STARLINK-3689,1 51961U 22025F   22284.75923610 -.00004002  00000-0 -23365-3 0  9994,2 51961  53.2179 217.8368 0001683  46.3681 313.7450 15.08817087 33253,6917.95,95.439,540.98,538.651,0.0
51961.0,STARLINK-3689,PAYLOAD,2022-10-12 02:10:12,15.0883289,0.0001653,53.2183,216.3516,52.8635,307.2508,4.9419e-05,4.98e-06,0.0,0 STARLINK-3689,1 51961U 22025F   22285.09041997  .00000498  00000-0  49419-4 0  9993,2 51961  53.2183 216.3516 0001653  52.8635 307.2508 15.08832890 33302,6917.901999999999,95.438,540.911,538.624,0.0
51961.0,STARLINK-3689,PAYLOAD,2022-10-12 18:04:03,15.08835383,0.0001629,53.2183,213.3782,48.411,311.7021,0.00017605,2.515e-05,0.0,0 STARLINK-3689,1 51961U 22025F   22285.75281906  .00002515  00000-0  17605-3 0  9995,2 51961  53.2183 213.3782 0001629  48.4110 311.7021 15.08835383 33407,6917.895,95.438,540.886,538.633,0.0
51961.0,STARLINK-3689,PAYLOAD,2022-10-13 11:33:18,15.08828655,0.0001613,53.2183,210.1056,51.3885,308.7251,0.00026291,3.897e-05,0.0,0 STARLINK-3689,1 51961U 22025F   22286.48146831  .00003897  00000-0  26291-3 0  9998,2 51961  53.2183 210.1056 0001613  51.3885 308.7251 15.08828655 34621,6917.915,95.438,540.896,538.664,0.0
51961.0,STARLINK-3689,PAYLOAD,2022-10-13 17:54:51,15.08833072,0.0001384,53.2179,208.9172,58.0903,302.0224,0.00018067,2.588e-05,0.0,0 STARLINK-3689,1 51961U 22025F   22286.74642876  .00002588  00000-0  18067-3 0  9995,2 51961  53.2179 208.9172 0001384  58.0903 302.0224 15.08833072 33557,6917.901999999999,95.438,540.724,538.809,0.0
51961.0,STARLINK-3689,PAYLOAD,2022-10-14 05:02:32,15.08849477,0.0001309,53.2173,206.8341,71.416,288.6974,0.00017719,2.534e-05,0.0,0 STARLINK-3689,1 51961U 22025F   22287.21009829  .00002534  00000-0  17719-3 0  9997,2 51961  53.2173 206.8341 0001309  71.4160 288.6974 15.08849477 34735,6917.851,95.437,540.622,538.811,0.0
51961.0,STARLINK-3689,PAYLOAD,2022-10-14 11:24:04,15.08854937,0.0001358,53.2173,205.6452,56.7395,303.3727,0.00016459,2.334e-05,0.0,0 STARLINK-3689,1 51961U 22025F   22287.47505382  .00002334  00000-0  16459-3 0  9998,2 51961  53.2173 205.6452 0001358  56.7395 303.3727 15.08854937 33664,6917.835,95.437,540.639,538.76,0.0
51961.0,STARLINK-3689,PAYLOAD,2022-10-15 00:07:10,15.08840051,0.0001673,53.218,203.2671,63.7603,296.3561,9.3327e-05,1.198e-05,0.0,0 STARLINK-3689,1 51961U 22025F   22288.00498314  .00001198  00000-0  93327-4 0  9991,2 51961  53.2180 203.2671 0001673  63.7603 296.3561 15.08840051 34850,6917.88,95.438,540.903,538.5880000000002,0.0
51961.0,STARLINK-3689,PAYLOAD,2022-10-15 17:36:24,15.08850623,0.0001694,53.2185,199.9981,67.6098,292.5074,8.101899999999999e-05,1.002e-05,0.0,0 STARLINK-3689,1 51961U 22025F   22288.73361326  .00001002  00000-0  81019-4 0  9992,2 51961  53.2185 199.9981 0001694  67.6098 292.5074 15.08850623 34969,6917.848000000001,95.437,540.885,538.5409999999998,0.0
51961.0,STARLINK-3689,PAYLOAD,2022-10-16 03:08:42,15.08854287,0.0001601,53.2176,198.2093,62.1957,297.9198,7.8528e-05,9.62e-06,0.0,0 STARLINK-3689,1 51961U 22025F   22289.13104863  .00000962  00000-0  78528-4 0  9993,2 51961  53.2176 198.2093 0001601  62.1957 297.9198 15.08854287 33917,6917.837,95.437,540.809,538.594,0.0
51961.0,STARLINK-3689,PAYLOAD,2022-10-17 02:59:31,15.08826608,0.0001799,53.219,193.7496,79.8134,280.3061,-0.00011268,-2.08e-05,0.0,0 STARLINK-3689,1 51961U 22025F   22290.12466859 -.00002080  00000-0 -11268-3 0  9992,2 51961  53.2190 193.7496 0001799  79.8134 280.3061 15.08826608 35171,6917.920999999999,95.438,541.031,538.5419999999998,0.0
51961.0,STARLINK-3689,PAYLOAD,2022-10-17 17:17:59,15.0883327,0.0001859,53.2186,191.073,72.2258,287.8937,-5.5507e-05,-1.171e-05,0.0,0 STARLINK-3689,1 51961U 22025F   22290.72082563 -.00001171  00000-0 -55507-4 0  9999,2 51961  53.2186 191.0730 0001859  72.2258 287.8937 15.08833270 35266,6917.901,95.438,541.052,538.48,0.0
51961.0,STARLINK-3689,PAYLOAD,2022-10-18 02:50:17,15.08839689,0.0001806,53.2185,189.2902,78.1863,281.9331,2.6016e-05,1.26e-06,0.0,0 STARLINK-3689,1 51961U 22025F   22291.11825967  .00000126  00000-0  26016-4 0  9996,2 51961  53.2185 189.2902 0001806  78.1863 281.9331 15.08839689 35324,6917.880999999999,95.438,540.996,538.497,0.0
51961.0,STARLINK-3689,PAYLOAD,2022-10-18 10:47:13,15.08833997,0.0001651,53.2175,187.8047,66.8405,293.2761,5.8677e-05,6.46e-06,0.0,0 STARLINK-3689,1 51961U 22025F   22291.44946340  .00000646  00000-0  58677-4 0  9996,2 51961  53.2175 187.8047 0001651  66.8405 293.2761 15.08833997 34262,6917.899,95.438,540.906,538.622,0.0
51961.0,STARLINK-3689,PAYLOAD,2022-10-18 15:33:23,15.08830789,0.0001629,53.2179,186.9128,73.0593,287.0577,2.7576e-05,1.51e-06,0.0,0 STARLINK-3689,1 51961U 22025F   22291.64818752  .00000151  00000-0  27576-4 0  9998,2 51961  53.2179 186.9128 0001629  73.0593 287.0577 15.08830789 35408,6917.909000000002,95.438,540.9,538.6469999999998,0.0
51961.0,STARLINK-3689,PAYLOAD,2022-10-19 01:05:42,15.08825813,0.0001633,53.2176,185.1285,68.0556,292.0609,1.8747e-07,-2.85e-06,0.0,0 STARLINK-3689,1 51961U 22025F   22292.04563474 -.00000285  00000-0  18747-6 0  9992,2 51961  53.2176 185.1285 0001633  68.0556 292.0609 15.08825813 35468,6917.924,95.438,540.918,538.659,0.0
51961.0,STARLINK-3689,PAYLOAD,2022-10-19 20:10:20,15.08835298,0.0001551,53.2174,181.5594,73.65100000000002,286.4652,8.882200000000001e-05,1.126e-05,0.0,0 STARLINK-3689,1 51961U 22025F   22292.84050934  .00001126  00000-0  88822-4 0  9995,2 51961  53.2174 181.5594 0001551  73.6510 286.4652 15.08835298 35586,6917.895,95.438,540.8330000000002,538.687,0.0
51961.0,STARLINK-3689,PAYLOAD,2022-10-19 21:45:43,15.08835353,0.0001553,53.2174,181.2622,73.0419,287.0744,8.5554e-05,1.074e-05,0.0,0 STARLINK-3689,1 51961U 22025F   22292.90674961  .00001074  00000-0  85554-4 0  9995,2 51961  53.2174 181.2622 0001553  73.0419 287.0744 15.08835353 34488,6917.895,95.438,540.8340000000002,538.685,0.0
51961.0,STARLINK-3689,PAYLOAD,2022-10-20 02:31:52,15.088387699999998,0.000159,53.2175,180.3704,70.7296,289.3868,0.00011469,1.538e-05,0.0,0 STARLINK-3689,1 51961U 22025F   22293.10546752  .00001538  00000-0  11469-3 0  9992,2 51961  53.2175 180.3704 0001590  70.7296 289.3868 15.08838770 34510,6917.884,95.438,540.849,538.649,0.0
51961.0,STARLINK-3689,PAYLOAD,2022-10-20 15:14:56,15.08857619,0.0001621,53.2168,177.9911,66.5391,293.5771,-0.00011653,-2.143e-05,0.0,0 STARLINK-3689,1 51961U 22025F   22293.63537933 -.00002143  00000-0 -11653-3 0  9991,2 51961  53.2168 177.9911 0001621  66.5391 293.5771 15.08857619 34599,6917.8269999999975,95.436,540.813,538.57,0.0
51961.0,STARLINK-3689,PAYLOAD,2022-10-21 02:22:39,15.08832347,0.0001527,53.2168,175.91,66.1378,293.9774,8.7581e-05,1.106e-05,0.0,0 STARLINK-3689,1 51961U 22025F   22294.09907397  .00001106  00000-0  87581-4 0  9997,2 51961  53.2168 175.9100 0001527  66.1378 293.9774 15.08832347 35772,6917.904,95.438,540.825,538.712,0.0
51961.0,STARLINK-3689,PAYLOAD,2022-10-21 08:44:12,15.08837553,0.00015,53.2168,174.7207,66.8616,293.2534,3.8203e-05,3.2e-06,0.0,0 STARLINK-3689,1 51961U 22025F   22294.36403213  .00000320  00000-0  38203-4 0  9999,2 51961  53.2168 174.7207 0001500  66.8616 293.2534 15.08837553 34703,6917.888000000001,95.438,540.7909999999998,538.715,0.0
51961.0,STARLINK-3689,PAYLOAD,2022-10-21 15:05:44,15.08841501,0.0001518,53.2167,173.5309,66.4869,293.6283,7.1726e-05,8.54e-06,0.0,0 STARLINK-3689,1 51961U 22025F   22294.62898828  .00000854  00000-0  71726-4 0  9997,2 51961  53.2167 173.5309 0001518  66.4869 293.6283 15.08841501 35857,6917.876,95.437,540.7909999999998,538.691,0.0
51961.0,STARLINK-3689,PAYLOAD,2022-10-22 00:38:03,15.08833056,0.0001588,53.2169,171.747,64.9514,295.1643,0.000183,2.625e-05,0.0,0 STARLINK-3689,1 51961U 22025F   22295.02643018  .00002625  00000-0  18300-3 0  9997,2 51961  53.2169 171.7470 0001588  64.9514 295.1643 15.08833056 34802,6917.901999999999,95.438,540.865,538.668,0.0
51961.0,STARLINK-3689,PAYLOAD,2022-10-22 19:42:40,15.0884604,0.000149,53.2163,168.178,65.8012,294.3135,8.1747e-05,1.013e-05,0.0,0 STARLINK-3689,1 51961U 22025F   22295.82130056  .00001013  00000-0  81747-4 0  9994,2 51961  53.2163 168.1780 0001490  65.8012 294.3135 15.08846040 34922,6917.861999999999,95.437,540.758,538.696,0.0
51961.0,STARLINK-3689,PAYLOAD,2022-10-22 22:53:26,15.088475,0.0001452,53.2163,167.5839,64.611,295.5032,0.00010913,1.4499999999999992e-05,0.0,0 STARLINK-3689,1 51961U 22025F   22295.95377841  .00001450  00000-0  10913-3 0  9994,2 51961  53.2163 167.5839 0001452  64.6110 295.5032 15.08847500 34947,6917.857,95.437,540.727,538.7180000000002,0.0
51961.0,STARLINK-3689,PAYLOAD,2022-10-23 19:33:26,15.08854241,0.000165,53.2177,163.7193,67.6189,292.4978,6.9384e-05,8.17e-06,0.0,0 STARLINK-3689,1 51961U 22025F   22296.81489343  .00000817  00000-0  69384-4 0  9994,2 51961  53.2177 163.7193 0001650  67.6189 292.4978 15.08854241 35072,6917.837,95.437,540.8430000000002,538.56,0.0
51961.0,STARLINK-3689,PAYLOAD,2022-10-24 00:19:35,15.08858211,0.0001639,53.2176,162.8282,67.9657,292.1509,0.00011424,1.531e-05,0.0,0 STARLINK-3689,1 51961U 22025F   22297.01360792  .00001531  00000-0  11424-3 0  9998,2 51961  53.2176 162.8282 0001639  67.9657 292.1509 15.08858211 36215,6917.825,95.436,540.8240000000002,538.556,0.0
51961.0,STARLINK-3689,PAYLOAD,2022-10-24 08:16:32,15.08841648,0.0001896999999999,53.2175,161.3388,65.2218,294.8971,4.908100000000001e-05,4.93e-06,0.0,0 STARLINK-3689,1 51961U 22025F   22297.34481845  .00000493  00000-0  49081-4 0  9994,2 51961  53.2175 161.3388 0001897  65.2218 294.8971 15.08841648 35155,6917.875,95.437,541.053,538.428,0.0
